[{"OBJECT_NAME":"STARLINK-36167","OBJECT_ID":"2025-293J","EPOCH":"2026-03-09T16:00:03.000096","MEAN_MOTION":14.98353371,"ECCENTRICITY":0.00035327,"INCLINATION":69.9998,"RA_OF_ASC_NODE":94.3623,"ARG_OF_PERICENTER":273.6486,"MEAN_ANOMALY":249.1448,"EPHEMERIS_TYPE":0,"CLASSIFICATION_TYPE":"U","NORAD_CAT_ID":67011,"ELEMENT_SET_NO":999,"REV_AT_EPOCH":533,"BSTAR":-0.0036450478,"MEAN_MOTION_DOT":-0.00043345,"MEAN_MOTION_DDOT":0},{"OBJECT_NAME":"ORBCOMM FM02","OBJECT_ID":"1995-017B","EPOCH":"2026-03-09T15:14:02.878656","MEAN_MOTION":14.96738099,"ECCENTRICITY":0.0008676,"INCLINATION":69.9626,"RA_OF_ASC_NODE":148.0696,"ARG_OF_PERICENTER":276.2558,"MEAN_ANOMALY":83.7611,"EPHEMERIS_TYPE":0,"CLASSIFICATION_TYPE":"U","NORAD_CAT_ID":23546,"ELEMENT_SET_NO":999,"REV_AT_EPOCH":65179,"BSTAR":0.00080978,"MEAN_MOTION_DOT":9.2e-5,"MEAN_MOTION_DDOT":0}]
